{
    "links": {
        "self": "http://www.neowsapp.com/rest/v1/neo/54079057?api_key=iIulBulltgU6a56xZRHN4H3l9WmuAYTsLGpBGhQ2"
    },
    "id": "54079057",
    "neo_reference_id": "54079057",
    "name": "(2020 UJ6)",
    "designation": "2020 UJ6",
    "nasa_jpl_url": "http://ssd.jpl.nasa.gov/sbdb.cgi?sstr=54079057",
    "absolute_magnitude_h": 19.925,
    "estimated_diameter": {
        "kilometers": {
            "estimated_diameter_min": 0.2751407879,
            "estimated_diameter_max": 0.6152335051
        },
        "meters": {
            "estimated_diameter_min": 275.1407879034,
            "estimated_diameter_max": 615.2335051348
        },
        "miles": {
            "estimated_diameter_min": 0.1709645065,
            "estimated_diameter_max": 0.3822882583
        },
        "feet": {
            "estimated_diameter_min": 902.6929025849,
            "estimated_diameter_max": 2018.4826929864
        }
    },
    "is_potentially_hazardous_asteroid": false,
    "close_approach_data": [
        {
            "close_approach_date": "1992-11-22",
            "close_approach_date_full": "1992-Nov-22 23:58",
            "epoch_date_close_approach": 722476680000,
            "relative_velocity": {
                "kilometers_per_second": "13.5492743894",
                "kilometers_per_hour": "48777.3878019908",
                "miles_per_hour": "30308.3718817426"
            },
            "miss_distance": {
                "astronomical": "0.4526218201",
                "lunar": "176.0698880189",
                "kilometers": "67711260.202483187",
                "miles": "42073826.1005825006"
            },
            "orbiting_body": "Earth"
        },
        {
            "close_approach_date": "1995-11-09",
            "close_approach_date_full": "1995-Nov-09 01:25",
            "epoch_date_close_approach": 815880300000,
            "relative_velocity": {
                "kilometers_per_second": "11.5611546423",
                "kilometers_per_hour": "41620.1567124089",
                "miles_per_hour": "25861.146819441"
            },
            "miss_distance": {
                "astronomical": "0.483413344",
                "lunar": "188.047790816",
                "kilometers": "72317606.59197728",
                "miles": "44936077.022675264"
            },
            "orbiting_body": "Earth"
        },
        {
            "close_approach_date": "2023-11-15",
            "close_approach_date_full": "2023-Nov-15 04:45",
            "epoch_date_close_approach": 1700023500000,
            "relative_velocity": {
                "kilometers_per_second": "11.6558877144",
                "kilometers_per_hour": "41961.1957719898",
                "miles_per_hour": "26073.0552284344"
            },
            "miss_distance": {
                "astronomical": "0.3789616329",
                "lunar": "147.4160751981",
                "kilometers": "56691853.093561923",
                "miles": "35226684.0292956174"
            },
            "orbiting_body": "Earth"
        },
        {
            "close_approach_date": "2051-11-20",
            "close_approach_date_full": "2051-Nov-20 02:21",
            "epoch_date_close_approach": 2584059660000,
            "relative_velocity": {
                "kilometers_per_second": "12.2351293268",
                "kilometers_per_hour": "44046.4655765225",
                "miles_per_hour": "27368.7607911453"
            },
            "miss_distance": {
                "astronomical": "0.3633968123",
                "lunar": "141.3613599847",
                "kilometers": "54363389.084869801",
                "miles": "33779843.5851772138"
            },
            "orbiting_body": "Earth"
        }
    ],
    "orbital_data": {
        "orbit_id": "7",
        "orbit_determination_date": "2020-12-08 05:23:58",
        "first_observation_date": "2020-10-12",
        "last_observation_date": "2020-12-07",
        "data_arc_in_days": 56,
        "observations_used": 48,
        "orbit_uncertainty": "6",
        "minimum_orbit_intersection": ".354372",
        "jupiter_tisserand_invariant": "3.523",
        "epoch_osculation": "2459000.5",
        "eccentricity": ".4064770838829656",
        "semi_major_axis": "2.128777884583248",
        "inclination": "22.68600315823357",
        "ascending_node_longitude": "38.03941593509206",
        "orbital_period": "1134.472444175411",
        "perihelion_distance": "1.263478457823301",
        "perihelion_argument": "48.34740082135752",
        "aphelion_distance": "2.994077311343195",
        "perihelion_time": "2459178.378075469579",
        "mean_anomaly": "303.5542859610019",
        "mean_motion": ".3173281130346584",
        "equinox": "J2000",
        "orbit_class": {
            "orbit_class_type": "AMO",
            "orbit_class_description": "Near-Earth asteroid orbits similar to that of 1221 Amor",
            "orbit_class_range": "1.017 AU < q (perihelion) < 1.3 AU"
        }
    },
    "is_sentry_object": false
}